CCSDS_OMM_VERS = 2.0
CREATION_DATE  = 
ORIGINATOR     = 

OBJECT_NAME    = 2026-027B
OBJECT_ID      = 2026-027B
CENTER_NAME    = EARTH
REF_FRAME      = TEME
TIME_SYSTEM    = UTC
MEAN_ELEMENT_THEORY = SGP/SGP4

EPOCH          = 2026-03-07T14:12:36.425664
MEAN_MOTION    = 15.17760864
ECCENTRICITY   = .0010145
INCLINATION    = 97.4897
RA_OF_ASC_NODE = 195.6292
ARG_OF_PERICENTER = 204.2943
MEAN_ANOMALY   = 155.7813

EPHEMERIS_TYPE = 0
CLASSIFICATION_TYPE = U
NORAD_CAT_ID   = 67747
ELEMENT_SET_NO = 999
REV_AT_EPOCH   = 354
BSTAR          = .64717863E-3
MEAN_MOTION_DOT = .13031E-3
MEAN_MOTION_DDOT = 0

CCSDS_OMM_VERS = 2.0
CREATION_DATE  = 
ORIGINATOR     = 

OBJECT_NAME    = 2026-027C
OBJECT_ID      = 2026-027C
CENTER_NAME    = EARTH
REF_FRAME      = TEME
TIME_SYSTEM    = UTC
MEAN_ELEMENT_THEORY = SGP/SGP4

EPOCH          = 2026-03-07T14:10:34.962816
MEAN_MOTION    = 15.17780008
ECCENTRICITY   = .00104939
INCLINATION    = 97.4910
RA_OF_ASC_NODE = 195.6346
ARG_OF_PERICENTER = 206.6794
MEAN_ANOMALY   = 153.3901

EPHEMERIS_TYPE = 0
CLASSIFICATION_TYPE = U
NORAD_CAT_ID   = 67748
ELEMENT_SET_NO = 999
REV_AT_EPOCH   = 354
BSTAR          = .42005681E-3
MEAN_MOTION_DOT = .8434E-4
MEAN_MOTION_DDOT = 0

CCSDS_OMM_VERS = 2.0
CREATION_DATE  = 
ORIGINATOR     = 

OBJECT_NAME    = 2026-027D
OBJECT_ID      = 2026-027D
CENTER_NAME    = EARTH
REF_FRAME      = TEME
TIME_SYSTEM    = UTC
MEAN_ELEMENT_THEORY = SGP/SGP4

EPOCH          = 2026-03-07T14:05:40.454592
MEAN_MOTION    = 15.18113643
ECCENTRICITY   = .00101497
INCLINATION    = 97.4904
RA_OF_ASC_NODE = 195.6379
ARG_OF_PERICENTER = 212.0474
MEAN_ANOMALY   = 148.0143

EPHEMERIS_TYPE = 0
CLASSIFICATION_TYPE = U
NORAD_CAT_ID   = 67749
ELEMENT_SET_NO = 999
REV_AT_EPOCH   = 349
BSTAR          = .73169234E-3
MEAN_MOTION_DOT = .14895E-3
MEAN_MOTION_DDOT = 0

CCSDS_OMM_VERS = 2.0
CREATION_DATE  = 
ORIGINATOR     = 

OBJECT_NAME    = 2026-027E
OBJECT_ID      = 2026-027E
CENTER_NAME    = EARTH
REF_FRAME      = TEME
TIME_SYSTEM    = UTC
MEAN_ELEMENT_THEORY = SGP/SGP4

EPOCH          = 2026-03-07T14:05:52.488384
MEAN_MOTION    = 15.18067517
ECCENTRICITY   = .000938
INCLINATION    = 97.4914
RA_OF_ASC_NODE = 195.6410
ARG_OF_PERICENTER = 212.8209
MEAN_ANOMALY   = 147.2443

EPHEMERIS_TYPE = 0
CLASSIFICATION_TYPE = U
NORAD_CAT_ID   = 67750
ELEMENT_SET_NO = 999
REV_AT_EPOCH   = 354
BSTAR          = .63311321E-3
MEAN_MOTION_DOT = .12856E-3
MEAN_MOTION_DDOT = 0

CCSDS_OMM_VERS = 2.0
CREATION_DATE  = 
ORIGINATOR     = 

OBJECT_NAME    = 2026-027F
OBJECT_ID      = 2026-027F
CENTER_NAME    = EARTH
REF_FRAME      = TEME
TIME_SYSTEM    = UTC
MEAN_ELEMENT_THEORY = SGP/SGP4

EPOCH          = 2026-03-07T09:17:41.728992
MEAN_MOTION    = 15.18306233
ECCENTRICITY   = .00105843
INCLINATION    = 97.4917
RA_OF_ASC_NODE = 195.4495
ARG_OF_PERICENTER = 214.0634
MEAN_ANOMALY   = 145.9922

EPHEMERIS_TYPE = 0
CLASSIFICATION_TYPE = U
NORAD_CAT_ID   = 67751
ELEMENT_SET_NO = 999
REV_AT_EPOCH   = 351
BSTAR          = -.55058343E-4
MEAN_MOTION_DOT = -.1198E-4
MEAN_MOTION_DDOT = 0

CCSDS_OMM_VERS = 2.0
CREATION_DATE  = 
ORIGINATOR     = 

OBJECT_NAME    = 2026-027G
OBJECT_ID      = 2026-027G
CENTER_NAME    = EARTH
REF_FRAME      = TEME
TIME_SYSTEM    = UTC
MEAN_ELEMENT_THEORY = SGP/SGP4

EPOCH          = 2026-03-04T13:18:19.429056
MEAN_MOTION    = 15.15895723
ECCENTRICITY   = .00092681
INCLINATION    = 97.4863
RA_OF_ASC_NODE = 192.6273
ARG_OF_PERICENTER = 274.5857
MEAN_ANOMALY   = 85.4317

EPHEMERIS_TYPE = 0
CLASSIFICATION_TYPE = U
NORAD_CAT_ID   = 67752
ELEMENT_SET_NO = 999
REV_AT_EPOCH   = 308
BSTAR          = .66333375E-3
MEAN_MOTION_DOT = .12661E-3
MEAN_MOTION_DDOT = 0

CCSDS_OMM_VERS = 2.0
CREATION_DATE  = 
ORIGINATOR     = 

OBJECT_NAME    = JIELONG-3 R/B
OBJECT_ID      = 2026-027H
CENTER_NAME    = EARTH
REF_FRAME      = TEME
TIME_SYSTEM    = UTC
MEAN_ELEMENT_THEORY = SGP/SGP4

EPOCH          = 2026-03-07T14:27:15.042816
MEAN_MOTION    = 15.73630514
ECCENTRICITY   = .0221019
INCLINATION    = 97.5131
RA_OF_ASC_NODE = 197.4563
ARG_OF_PERICENTER = 252.5127
MEAN_ANOMALY   = 105.1874

EPHEMERIS_TYPE = 0
CLASSIFICATION_TYPE = U
NORAD_CAT_ID   = 67753
ELEMENT_SET_NO = 999
REV_AT_EPOCH   = 365
BSTAR          = .76304391E-3
MEAN_MOTION_DOT = .548555E-2
MEAN_MOTION_DDOT = .2373281E-5

CCSDS_OMM_VERS = 2.0
CREATION_DATE  = 
ORIGINATOR     = 

OBJECT_NAME    = JIELONG-3 DEB
OBJECT_ID      = 2026-027J
CENTER_NAME    = EARTH
REF_FRAME      = TEME
TIME_SYSTEM    = UTC
MEAN_ELEMENT_THEORY = SGP/SGP4

EPOCH          = 2026-03-07T14:38:28.038336
MEAN_MOTION    = 16.10327193
ECCENTRICITY   = .01136725
INCLINATION    = 97.4986
RA_OF_ASC_NODE = 197.9038
ARG_OF_PERICENTER = 253.9040
MEAN_ANOMALY   = 104.9704

EPHEMERIS_TYPE = 0
CLASSIFICATION_TYPE = U
NORAD_CAT_ID   = 67754
ELEMENT_SET_NO = 999
REV_AT_EPOCH   = 362
BSTAR          = .13463789E-2
MEAN_MOTION_DOT = .3588568E-1
MEAN_MOTION_DDOT = .2449607E-5

CCSDS_OMM_VERS = 2.0
CREATION_DATE  = 
ORIGINATOR     = 

OBJECT_NAME    = 2026-028A
OBJECT_ID      = 2026-028A
CENTER_NAME    = EARTH
REF_FRAME      = TEME
TIME_SYSTEM    = UTC
MEAN_ELEMENT_THEORY = SGP/SGP4

EPOCH          = 2026-03-05T07:50:47.616864
MEAN_MOTION    = 0.99523939
ECCENTRICITY   = .0042016
INCLINATION    = 0.4806
RA_OF_ASC_NODE = 289.7424
ARG_OF_PERICENTER = 229.1663
MEAN_ANOMALY   = 201.2342

EPHEMERIS_TYPE = 0
CLASSIFICATION_TYPE = U
NORAD_CAT_ID   = 67756
ELEMENT_SET_NO = 999
REV_AT_EPOCH   = 21
BSTAR          = 0
MEAN_MOTION_DOT = .4E-7
MEAN_MOTION_DDOT = 0

CCSDS_OMM_VERS = 2.0
CREATION_DATE  = 
ORIGINATOR     = 

OBJECT_NAME    = JAM-E JAM 1
OBJECT_ID      = 2026-028B
CENTER_NAME    = EARTH
REF_FRAME      = TEME
TIME_SYSTEM    = UTC
MEAN_ELEMENT_THEORY = SGP/SGP4

EPOCH          = 2026-03-06T14:07:26.036256
MEAN_MOTION    = 1.00260970
ECCENTRICITY   = .00045148
INCLINATION    = 0.5003
RA_OF_ASC_NODE = 285.7022
ARG_OF_PERICENTER = 129.9316
MEAN_ANOMALY   = 355.2368

EPHEMERIS_TYPE = 0
CLASSIFICATION_TYPE = U
NORAD_CAT_ID   = 67757
ELEMENT_SET_NO = 999
REV_AT_EPOCH   = 9
BSTAR          = 0
MEAN_MOTION_DOT = .151E-5
MEAN_MOTION_DDOT = 0

CCSDS_OMM_VERS = 2.0
CREATION_DATE  = 
ORIGINATOR     = 

OBJECT_NAME    = KUIPER-00159
OBJECT_ID      = 2026-030A
CENTER_NAME    = EARTH
REF_FRAME      = TEME
TIME_SYSTEM    = UTC
MEAN_ELEMENT_THEORY = SGP/SGP4

EPOCH          = 2026-03-07T14:45:31.940928
MEAN_MOTION    = 15.35676200
ECCENTRICITY   = .00049245
INCLINATION    = 51.8841
RA_OF_ASC_NODE = 229.1721
ARG_OF_PERICENTER = 39.0747
MEAN_ANOMALY   = 321.0594

EPHEMERIS_TYPE = 0
CLASSIFICATION_TYPE = U
NORAD_CAT_ID   = 67764
ELEMENT_SET_NO = 999
REV_AT_EPOCH   = 477
BSTAR          = .12524274E-2
MEAN_MOTION_DOT = .44004E-3
MEAN_MOTION_DDOT = 0

CCSDS_OMM_VERS = 2.0
CREATION_DATE  = 
ORIGINATOR     = 

OBJECT_NAME    = KUIPER-00160
OBJECT_ID      = 2026-030B
CENTER_NAME    = EARTH
REF_FRAME      = TEME
TIME_SYSTEM    = UTC
MEAN_ELEMENT_THEORY = SGP/SGP4

EPOCH          = 2026-03-07T14:47:36.323232
MEAN_MOTION    = 15.35497511
ECCENTRICITY   = .00051312
INCLINATION    = 51.8809
RA_OF_ASC_NODE = 229.1719
ARG_OF_PERICENTER = 49.4993
MEAN_ANOMALY   = 310.6440

EPHEMERIS_TYPE = 0
CLASSIFICATION_TYPE = U
NORAD_CAT_ID   = 67765
ELEMENT_SET_NO = 999
REV_AT_EPOCH   = 477
BSTAR          = .83623415E-3
MEAN_MOTION_DOT = .29027E-3
MEAN_MOTION_DDOT = 0

